NORAD_CAT_ID,OBJECT_NAME,OBJECT_TYPE,EPOCH,MEAN_MOTION,ECCENTRICITY,INCLINATION,RA_OF_ASC_NODE,ARG_OF_PERICENTER,MEAN_ANOMALY,BSTAR,MEAN_MOTION_DOT,MEAN_MOTION_DDOT,TLE_LINE0,TLE_LINE1,TLE_LINE2,SEMIMAJOR_AXIS,PERIOD,APOGEE,PERIGEE,DECAYED
54068.0,STARLINK-5222,PAYLOAD,2023-01-15 22:25:59,15.08841905,0.000196,53.2166,100.8904,48.3015,311.8144,0.00023104,3.391e-05,0.0,0 STARLINK-5222,1 54068U 22136T   23015.93471679  .00003391  00000-0  23104-3 0  9993,2 54068  53.2166 100.8904 0001960  48.3015 311.8144 15.08841905 13903,6917.875,95.437,541.095,538.384,0.0
54068.0,STARLINK-5222,PAYLOAD,2023-01-16 12:44:26,15.08859497,0.0001996999999999,53.219,98.2121,42.8554,317.2593,0.00012508,1.704e-05,0.0,0 STARLINK-5222,1 54068U 22136T   23016.53086759  .00001704  00000-0  12508-3 0  9993,2 54068  53.2190  98.2121 0001997  42.8554 317.2593 15.08859497 13990,6917.821,95.436,541.067,538.304,0.0
54068.0,STARLINK-5222,PAYLOAD,2023-01-17 06:13:44,15.08818856,0.0001291,53.2161,94.9452,78.7462,281.3675,-5.0968e-05,-1.098e-05,0.0,0 STARLINK-5222,1 54068U 22136T   23017.25954118 -.00001098  00000-0 -50968-4 0  9997,2 54068  53.2161  94.9452 0001291  78.7462 281.3675 15.08818856 14101,6917.945,95.439,540.703,538.9169999999999,0.0
54068.0,STARLINK-5222,PAYLOAD,2023-01-17 23:42:58,15.08829428,0.0001167,53.2184,91.6734,76.5128,283.5995,4.8229e-06,-2.11e-06,0.0,0 STARLINK-5222,1 54068U 22136T   23017.98817706 -.00000211  00000-0  48229-5 0  9991,2 54068  53.2184  91.6734 0001167  76.5128 283.5995 15.08829428 14218,6917.9130000000005,95.438,540.585,538.97,0.0
54068.0,STARLINK-5222,PAYLOAD,2023-01-18 10:50:38,15.08851748,0.0001028,53.2185,89.5915,64.3115,295.7983,0.0001858,2.671e-05,0.0,0 STARLINK-5222,1 54068U 22136T   23018.45183781  .00002671  00000-0  18580-3 0  9999,2 54068  53.2185  89.5915 0001028  64.3115 295.7983 15.08851748 14282,6917.844,95.437,540.4209999999999,538.998,0.0
54068.0,STARLINK-5222,PAYLOAD,2023-01-18 12:26:00,15.08872478,0.0001583,53.2181,89.2936,62.9001,297.2153,0.00020036,2.905e-05,0.0,0 STARLINK-5222,1 54068U 22136T   23018.51806683  .00002905  00000-0  20036-3 0  9998,2 54068  53.2181  89.2936 0001583  62.9001 297.2153 15.08872478 13819,6917.781,95.436,540.741,538.5509999999999,0.0
54068.0,STARLINK-5222,PAYLOAD,2023-01-18 21:58:20,15.08845898,0.0001267,53.2185,87.5104,90.9175,269.1963,0.00034908,5.273e-05,0.0,0 STARLINK-5222,1 54068U 22136T   23018.91551560  .00005273  00000-0  34908-3 0  9997,2 54068  53.2185  87.5104 0001267  90.9175 269.1963 15.08845898 14356,6917.861999999999,95.437,540.604,538.851,0.0
54068.0,STARLINK-5222,PAYLOAD,2023-01-19 04:19:53,15.08840854,0.0001634,53.2181,86.3213,107.2829,252.8342,0.00019523,2.821e-05,0.0,0 STARLINK-5222,1 54068U 22136T   23019.18048355  .00002821  00000-0  19523-3 0  9992,2 54068  53.2181  86.3213 0001634 107.2829 252.8342 15.08840854 14397,6917.878000000001,95.438,540.873,538.612,0.0
54068.0,STARLINK-5222,PAYLOAD,2023-01-19 10:41:25,15.08855341,0.0001515,53.2189,85.1323,98.2241,261.8923,0.00028957,4.325e-05,0.0,0 STARLINK-5222,1 54068U 22136T   23019.44543136  .00004325  00000-0  28957-3 0  9990,2 54068  53.2189  85.1323 0001515  98.2241 261.8923 15.08855341 14436,6917.8330000000005,95.437,540.747,538.65,0.0
54068.0,STARLINK-5222,PAYLOAD,2023-01-19 12:16:48,15.08857865,0.0001188,53.2178,84.83200000000001,91.8052,268.3076,0.00030844,4.627e-05,0.0,0 STARLINK-5222,1 54068U 22136T   23019.51166885  .00004627  00000-0  30844-3 0  9993,2 54068  53.2178  84.8320 0001188  91.8052 268.3076 15.08857865 13963,6917.826,95.436,540.513,538.869,0.0
54068.0,STARLINK-5222,PAYLOAD,2023-01-19 23:24:32,15.08840532,0.0001349,53.2173,82.7524,74.9619,285.1522,-0.00011528,-2.122e-05,0.0,0 STARLINK-5222,1 54068U 22136T   23019.97537175 -.00002122  00000-0 -11528-3 0  9995,2 54068  53.2173  82.7524 0001349  74.9619 285.1522 15.08840532 14519,6917.879,95.438,540.677,538.811,0.0
54068.0,STARLINK-5222,PAYLOAD,2023-01-20 10:32:14,15.08830735,0.0001322,53.2176,80.6711,75.7763,284.3376,-0.00018713,-3.264e-05,0.0,0 STARLINK-5222,1 54068U 22136T   23020.43906063 -.00003264  00000-0 -18713-3 0  9995,2 54068  53.2176  80.6711 0001322  75.7763 284.3376 15.08830735 14586,6917.909000000001,95.438,540.688,538.859,0.0
54068.0,STARLINK-5222,PAYLOAD,2023-01-20 23:15:18,15.08842908,0.0001200999999999,53.2177,78.2922,87.9825,272.1304,-5.7085e-05,-1.196e-05,0.0,0 STARLINK-5222,1 54068U 22136T   23020.96896893 -.00001196  00000-0 -57085-4 0  9990,2 54068  53.2177  78.2922 0001201  87.9825 272.1304 15.08842908 14664,6917.871999999999,95.437,540.567,538.906,0.0
54068.0,STARLINK-5222,PAYLOAD,2023-01-21 10:23:00,15.08853179,0.0001385999999999,53.2167,76.21,79.7123,280.4025,0.00033912,5.115e-05,0.0,0 STARLINK-5222,1 54068U 22136T   23021.43264403  .00005115  00000-0  33912-3 0  9994,2 54068  53.2167  76.2100 0001386  79.7123 280.4025 15.08853179 14735,6917.84,95.437,540.664,538.746,0.0
54068.0,STARLINK-5222,PAYLOAD,2023-01-22 13:24:33,15.08854109,0.0001375,53.2158,71.1522,96.7895,263.3253,0.00038746,5.886e-05,0.0,0 STARLINK-5222,1 54068U 22136T   23022.55872511  .00005886  00000-0  38746-3 0  9998,2 54068  53.2158  71.1522 0001375  96.7895 263.3253 15.08854109 14906,6917.837,95.437,540.653,538.751,0.0
54068.0,STARLINK-5222,PAYLOAD,2023-01-23 03:43:02,15.08841082,0.0001849,53.2167,68.4795,118.2981,241.8198,-0.00077432,-0.00012591,0.0,0 STARLINK-5222,1 54068U 22136T   23023.15488955 -.00012591  00000-0 -77432-3 0  9998,2 54068  53.2167  68.4795 0001849 118.2981 241.8198 15.08841082 14993,6917.877,95.437,541.021,538.4630000000001,0.0
54068.0,STARLINK-5222,PAYLOAD,2023-01-24 06:44:36,15.08840822,0.0001469,53.2168,63.4258,114.8461,245.2684,0.00043391,6.625e-05,0.0,0 STARLINK-5222,1 54068U 22136T   23024.28097579  .00006625  00000-0  43391-3 0  9997,2 54068  53.2168  63.4258 0001469 114.8461 245.2684 15.08840822 15165,6917.878000000001,95.438,540.759,538.727,0.0
54068.0,STARLINK-5222,PAYLOAD,2023-01-25 01:49:14,15.08840499,0.0001281,53.2164,59.8558,96.4385,263.6754,0.00031605,4.746e-05,0.0,0 STARLINK-5222,1 54068U 22136T   23025.07585862  .00004746  00000-0  31605-3 0  9999,2 54068  53.2164  59.8558 0001281  96.4385 263.6754 15.08840499 15280,6917.879,95.438,540.63,538.8580000000001,0.0
54068.0,STARLINK-5222,PAYLOAD,2023-01-25 09:46:10,15.08838151,0.0001205999999999,53.2162,58.3685,86.7585,273.3545,0.00023963,3.528e-05,0.0,0 STARLINK-5222,1 54068U 22136T   23025.40706075  .00003528  00000-0  23963-3 0  9992,2 54068  53.2162  58.3685 0001206  86.7585 273.3545 15.08838151 14854,6917.886,95.438,540.585,538.9169999999999,0.0
54068.0,STARLINK-5222,PAYLOAD,2023-01-25 19:18:28,15.08841058,0.0001252,53.2169,56.5843,84.9682,275.1453,0.00032928,4.957e-05,0.0,0 STARLINK-5222,1 54068U 22136T   23025.80450172  .00004957  00000-0  32928-3 0  9998,2 54068  53.2169  56.5843 0001252  84.9682 275.1453 15.08841058 15394,6917.877,95.437,540.6080000000001,538.876,0.0
54068.0,STARLINK-5222,PAYLOAD,2023-01-26 11:12:19,15.08857261,0.0001125999999999,53.2161,53.6087,91.6771,268.435,0.0007019999999999,0.00010907,0.0,0 STARLINK-5222,1 54068U 22136T   23026.46689661  .00010907  00000-0  70200-3 0  9995,2 54068  53.2161  53.6087 0001126  91.6771 268.4350 15.08857261 15011,6917.828,95.436,540.472,538.914,0.0
54068.0,STARLINK-5222,PAYLOAD,2023-01-26 22:20:02,15.08846196,0.0001177999999999,53.216,51.5272,82.5798,277.5328,0.00028105,4.189e-05,0.0,0 STARLINK-5222,1 54068U 22136T   23026.93057910  .00004189  00000-0  28105-3 0  9995,2 54068  53.2160  51.5272 0001178  82.5798 277.5328 15.08846196 15569,6917.861,95.437,540.5409999999999,538.9119999999999,0.0
54068.0,STARLINK-5222,PAYLOAD,2023-01-27 11:03:06,15.08848596,0.0001215,53.2161,49.1477,82.3323,277.7807,0.00029573,4.423e-05,0.0,0 STARLINK-5222,1 54068U 22136T   23027.46049720  .00004423  00000-0  29573-3 0  9995,2 54068  53.2161  49.1477 0001215  82.3323 277.7807 15.08848596 15160,6917.854,95.437,540.56,538.879,0.0
54068.0,STARLINK-5222,PAYLOAD,2023-01-28 04:32:21,15.08841757,0.0001296,53.2156,45.876000000000005,95.4418,264.6722,0.00011068,1.474e-05,0.0,0 STARLINK-5222,1 54068U 22136T   23028.18913846  .00001474  00000-0  11068-3 0  9997,2 54068  53.2156  45.8760 0001296  95.4418 264.6722 15.08841757 15759,6917.875,95.437,540.637,538.8430000000001,0.0
54068.0,STARLINK-5222,PAYLOAD,2023-01-28 07:43:07,15.08845228,0.0001144,53.2168,45.2833,91.6812,268.4311,0.0001637,2.319e-05,0.0,0 STARLINK-5222,1 54068U 22136T   23028.32161797  .00002319  00000-0  16370-3 0  9993,2 54068  53.2168  45.2833 0001144  91.6812 268.4311 15.08845228 15297,6917.864,95.437,540.521,538.938,0.0
54068.0,STARLINK-5222,PAYLOAD,2023-01-29 05:58:31,15.08845112,0.0001212,53.2171,41.1207,81.5596,278.5534,0.00018257,2.619e-05,0.0,0 STARLINK-5222,1 54068U 22136T   23029.24897827  .00002619  00000-0  18257-3 0  9994,2 54068  53.2171  41.1207 0001212  81.5596 278.5534 15.08845112 15914,6917.865,95.437,540.568,538.891,0.0
54068.0,STARLINK-5222,PAYLOAD,2023-01-29 07:33:54,15.08846602,0.0001213,53.2174,40.8237,85.8283,274.2848,0.00020581,2.99e-05,0.0,0 STARLINK-5222,1 54068U 22136T   23029.31521743  .00002990  00000-0  20581-3 0  9998,2 54068  53.2174  40.8237 0001213  85.8283 274.2848 15.08846602 15441,6917.86,95.437,540.564,538.886,0.0
54068.0,STARLINK-5222,PAYLOAD,2023-01-30 07:24:42,15.08837131,0.0001276,53.2178,36.3627,102.1694,257.9441,0.00016542,2.346e-05,0.0,0 STARLINK-5222,1 54068U 22136T   23030.30882120  .00002346  00000-0  16542-3 0  9995,2 54068  53.2178  36.3627 0001276 102.1694 257.9441 15.08837131 16070,6917.889,95.438,540.637,538.871,0.0
54068.0,STARLINK-5222,PAYLOAD,2023-01-30 09:00:05,15.08838189,0.0001268,53.2178,36.065,101.8264,258.287,0.00015933,2.249e-05,0.0,0 STARLINK-5222,1 54068U 22136T   23030.37506054  .00002249  00000-0  15933-3 0  9996,2 54068  53.2178  36.0650 0001268 101.8264 258.2870 15.08838189 15605,6917.886,95.438,540.628,538.874,0.0
